0 FENGYUN 1C DEB
1 30181U 99025UN  13281.51151892  .00001786  00000-0  10387-2 0   764
2 30181 099.0237 267.9077 0054796 038.8507 081.1888 14.09198977345613
0 FENGYUN 1C DEB
1 30181U 99025UN  13283.62797632  .00001818  00000-0  10566-2 0   772
2 30181 099.0236 270.0276 0054677 033.0176 018.1552 14.09213243345910
0 FENGYUN 1C DEB
1 30181U 99025UN  13286.48194508  .00001598  00000-0  93194-3 0   787
2 30181 099.0237 272.8862 0054576 025.1899 096.6752 14.09223818346311
0 FENGYUN 1C DEB
1 30181U 99025UN  13288.67044392  .00002306  00000-0  13330-2 0   797
2 30181 099.0232 275.0780 0054547 019.1265 039.3454 14.09233678346620
0 FENGYUN 1C DEB
1 30181U 99025UN  13291.52241051  .00002396  00000-0  13837-2 0   809
2 30181 099.0236 277.9343 0054337 011.2270 108.0266 14.09245657347026
0 FENGYUN 1C DEB
1 30181U 99025UN  13293.79425266  .00003085  00000-0  17743-2 0   819
2 30181 099.0246 280.2095 0054181 004.8618 113.7723 14.09254849347348
